      2.10          N: GNSS NAV DATA                        RINEX VERSION / TYPE
fic2rin                                 03/28/2019 00:19:25 PGM / RUN BY / DATE
                                                            END OF HEADER
25 19  3 27 10  0  0.0-7.383320480585e-04-4.774847184308e-12 0.000000000000e+00
    6.000000000000e+01 6.587500000000e+01 4.230890519287e-09-1.625469866156e+00
    3.408640623093e-06 8.391016162932e-03 5.153939127922e-06 5.153737615585e+03
    2.952000000000e+05 2.086162567139e-07 2.334387532565e+00-1.080334186554e-07
    9.708374938156e-01 2.855625000000e+02 8.741937125113e-01-8.019976921373e-09
    8.928943354902e-12 1.000000000000e+00 2.046000000000e+03 0.000000000000e+00
    2.400000000000e+00 0.000000000000e+00 5.587935447693e-09 6.000000000000e+01
    2.880000000000e+05 4.000000000000e+00
13 19  3 27 10  0  0.0-7.015978917480e-05 1.477928890381e-12 0.000000000000e+00
    7.100000000000e+01 5.718750000000e+00 4.597334354572e-09 1.156200429189e+00
    2.849847078323e-07 3.645901218988e-03 8.238479495049e-06 5.153659982681e+03
    2.952000000000e+05-9.685754776001e-08 3.586874447261e-01 2.235174179077e-08
    9.683867900425e-01 2.254062500000e+02 1.342761412545e+00-7.966760418978e-09
   -2.353669468352e-10 1.000000000000e+00 2.046000000000e+03 0.000000000000e+00
    2.400000000000e+00 0.000000000000e+00-1.117587089539e-08 7.100000000000e+01
    2.880000000000e+05 4.000000000000e+00
30 19  3 27 10  0  0.0-7.572723552585e-05-6.707523425575e-12 0.000000000000e+00
    8.600000000000e+01 4.771875000000e+01 4.833772774610e-09-5.436769366124e-01
    2.309679985046e-06 3.789367387071e-03 8.266419172287e-06 5.153613086700e+03
    2.952000000000e+05 1.192092895508e-07 1.327780345827e+00 7.450580596924e-09
    9.412614434773e-01 2.106875000000e+02-3.012040759771e+00-8.202841681281e-09
   -2.871548182937e-10 1.000000000000e+00 2.046000000000e+03 0.000000000000e+00
    2.400000000000e+00 0.000000000000e+00 3.725290298462e-09 8.600000000000e+01
    2.880000000000e+05 4.000000000000e+00
31 19  3 27 10  0  0.0 4.926696419716e-05-2.728484105319e-12 0.000000000000e+00
    7.900000000000e+01 4.987500000000e+01 4.438399162855e-09-9.488165975855e-01
    2.553686499596e-06 9.235084755346e-03 8.929520845413e-06 5.153586606979e+03
    2.952000000000e+05 5.587935447693e-08 1.312498154976e+00-1.955777406693e-07
    9.603504748635e-01 2.078750000000e+02-3.859545085545e-03-8.005333454271e-09
   -2.282237921513e-10 1.000000000000e+00 2.046000000000e+03 0.000000000000e+00
    2.400000000000e+00 0.000000000000e+00-1.350417733192e-08 7.900000000000e+01
    2.880000000000e+05 4.000000000000e+00
18 19  3 27 10  0  0.0 3.863731399179e-05 3.410605131648e-12 0.000000000000e+00
    7.200000000000e+01-5.193750000000e+01 4.749840707074e-09-1.873546237292e-01
   -2.853572368622e-06 1.511653594207e-02 7.867813110352e-06 5.153719913483e+03
    2.952000000000e+05-1.713633537292e-07-1.906389410874e+00 1.303851604462e-07
    9.531706748131e-01 2.299062500000e+02 1.380173220772e+00-8.417493479533e-09
    2.267951612145e-10 1.000000000000e+00 2.046000000000e+03 0.000000000000e+00
    2.400000000000e+00 0.000000000000e+00-6.053596735001e-09 7.200000000000e+01
    2.880000000000e+05 4.000000000000e+00
 9 19  3 27 10  0  0.0 4.387437365949e-04-6.025402399246e-12 0.000000000000e+00
    3.700000000000e+01 1.500000000000e+00 4.950563353692e-09 2.552745170574e+00
    1.713633537292e-07 1.367054064758e-03 7.560476660728e-06 5.153708015442e+03
    2.952000000000e+05 4.842877388000e-08 2.224475926923e-01-1.061707735062e-07
    9.529203461231e-01 2.259062500000e+02 1.741483793184e+00-8.194984211129e-09
   -2.235807416067e-10 1.000000000000e+00 2.046000000000e+03 0.000000000000e+00
    2.400000000000e+00 0.000000000000e+00 1.396983861923e-09 3.700000000000e+01
    2.880000000000e+05 4.000000000000e+00
29 19  3 27 10  0  0.0 2.397545613348e-04-8.867573342286e-12 0.000000000000e+00
    6.600000000000e+01-5.075000000000e+01 3.934449599904e-09 2.943755060266e+00
   -2.590939402580e-06 8.627283386886e-04 5.124136805534e-06 5.153778688431e+03
    2.952000000000e+05-5.774199962616e-08-2.841153839130e+00 5.215406417847e-08
    9.856564458044e-01 2.943125000000e+02 1.575259256831e+00-7.927830225950e-09
   -1.785788670980e-11 1.000000000000e+00 2.046000000000e+03 0.000000000000e+00
    2.400000000000e+00 0.000000000000e+00-1.024454832077e-08 6.600000000000e+01
    2.880000000000e+05 4.000000000000e+00
26 19  3 27 10  0  0.0 1.601418480277e-04 1.000444171950e-11 0.000000000000e+00
    4.100000000000e+01 6.068750000000e+01 4.632335812523e-09-2.282920936386e+00
    3.142282366753e-06 3.731340519153e-03 5.709007382393e-06 5.153579784393e+03
    2.952000000000e+05-2.235174179077e-08 2.306934211470e+00-2.235174179077e-08
    9.521532811203e-01 2.665937500000e+02 1.471800961732e-01-8.260344076487e-09
    5.250218692682e-11 1.000000000000e+00 2.046000000000e+03 0.000000000000e+00
    2.400000000000e+00 0.000000000000e+00 7.450580596924e-09 4.100000000000e+01
    2.880000000000e+05 4.000000000000e+00
15 19  3 27 10  0  0.0-3.214934840798e-04 1.932676241267e-12 0.000000000000e+00
    1.160000000000e+02-4.125000000000e+00 5.651306828185e-09 1.347739083474e+00
   -2.235174179077e-08 1.125502143987e-02 7.843598723412e-06 5.153653074265e+03
    2.952000000000e+05-1.676380634308e-07 1.440156887972e-01 1.676380634308e-07
    9.284323073094e-01 2.151562500000e+02 7.684921188500e-01-8.594286557960e-09
   -2.667968274445e-10 1.000000000000e+00 2.046000000000e+03 0.000000000000e+00
    2.400000000000e+00 0.000000000000e+00-1.071020960808e-08 1.160000000000e+02
    2.880000000000e+05 4.000000000000e+00
11 19  3 27 10  0  0.0-6.377161480486e-04 6.821210263297e-12 0.000000000000e+00
    8.500000000000e+01-5.456250000000e+01 5.713095116201e-09-6.488246343789e-01
   -2.985820174217e-06 1.653592835646e-02 6.698071956635e-06 5.153695632935e+03
    2.952000000000e+05-2.365559339523e-07-2.299492259425e+00-1.676380634308e-08
    9.088358540099e-01 2.265937500000e+02 1.872498641656e+00-8.981802699563e-09
    2.403671551140e-10 1.000000000000e+00 2.046000000000e+03 0.000000000000e+00
    2.400000000000e+00 0.000000000000e+00-1.210719347000e-08 8.500000000000e+01
    2.880000000000e+05 4.000000000000e+00
10 19  3 27 10  0  0.0 8.766958490014e-05-8.981260180008e-12 0.000000000000e+00
    8.800000000000e+01-2.137500000000e+01 4.683766526247e-09-2.015706252542e+00
   -1.223757863045e-06 4.450504318811e-03 7.985159754753e-06 5.153660537720e+03
    2.952000000000e+05 1.154839992523e-07-8.130162748998e-01-5.587935447693e-08
    9.625726254821e-01 2.263437500000e+02-2.714160286207e+00-8.002476192397e-09
    3.228705917133e-10 1.000000000000e+00 2.046000000000e+03 0.000000000000e+00
    2.400000000000e+00 0.000000000000e+00 1.862645149231e-09 8.800000000000e+01
    2.880000000000e+05 4.000000000000e+00
12 19  3 27 10  0  0.0 2.565747126937e-04-3.296918293927e-12 0.000000000000e+00
    8.800000000000e+01 5.771875000000e+01 4.035525238682e-09-1.298917507551e+00
    3.036111593246e-06 7.609601481818e-03 4.874542355537e-06 5.153677635193e+03
    2.952000000000e+05 1.713633537292e-07 2.397949119955e+00 1.080334186554e-07
    9.834127932159e-01 2.976562500000e+02 1.051552535921e+00-8.023191340981e-09
   -1.107188976008e-11 1.000000000000e+00 2.046000000000e+03 0.000000000000e+00
    2.400000000000e+00 0.000000000000e+00-1.257285475731e-08 8.800000000000e+01
    2.880000000000e+05 4.000000000000e+00
20 19  3 27 10  0  0.0 5.234652198851e-04 3.410605131648e-13 0.000000000000e+00
    8.500000000000e+01-2.171875000000e+01 5.419868616426e-09-2.894292002079e-01
   -1.152977347374e-06 4.360346472822e-03 7.824972271919e-06 5.153676374435e+03
    2.952000000000e+05 9.313225746155e-09-9.294491290012e-01-1.862645149231e-09
    9.301652551965e-01 2.123437500000e+02 2.322563163644e+00-8.473924401536e-09
    3.485859485754e-10 1.000000000000e+00 2.046000000000e+03 0.000000000000e+00
    2.400000000000e+00 0.000000000000e+00-8.381903171539e-09 8.500000000000e+01
    2.880000000000e+05 4.000000000000e+00
 1 19  3 27  9 59 44.0-1.891311258078e-04-7.844391802792e-12 0.000000000000e+00
    3.000000000000e+00-4.940625000000e+01 4.206246635627e-09 5.762473081562e-02
   -2.570450305939e-06 8.549016085453e-03 7.923692464828e-06 5.153659280777e+03
    2.951840000000e+05 4.470348358154e-08-1.852582606587e+00 1.136213541031e-07
    9.746396661799e-01 2.373437500000e+02 6.845010882178e-01-8.014976713094e-09
    1.875078104529e-10 1.000000000000e+00 2.046000000000e+03 0.000000000000e+00
    2.400000000000e+00 0.000000000000e+00 5.587935447693e-09 3.000000000000e+00
    2.890800000000e+05 4.000000000000e+00
 1 19  3 27 11 59 44.0-1.891874708235e-04-7.844391802792e-12 0.000000000000e+00
    8.000000000000e+00-5.500000000000e+01 4.155887395106e-09 1.107793886051e+00
   -2.931803464890e-06 8.548604673706e-03 7.873401045799e-06 5.153658811569e+03
    3.023840000000e+05-5.960464477539e-08-1.852639723298e+00 7.450580596924e-08
    9.746407897010e-01 2.360000000000e+02 6.845195765765e-01-7.975689362333e-09
    1.110760553350e-10 1.000000000000e+00 2.046000000000e+03 0.000000000000e+00
    2.400000000000e+00 0.000000000000e+00 5.587935447693e-09 8.000000000000e+00
    2.952000000000e+05 4.000000000000e+00
 2 19  3 27 12  0  0.0-1.740148290992e-04-9.549694368616e-12 0.000000000000e+00
    8.900000000000e+01-6.009375000000e+01 4.574833417318e-09 1.401989690292e+00
   -3.300607204437e-06 1.892274164129e-02 8.167698979378e-06 5.153678979874e+03
    3.024000000000e+05-2.980232238770e-07-1.920128837576e+00-3.911554813385e-07
    9.537748073148e-01 2.196562500000e+02-1.756232876206e+00-8.231057142283e-09
    2.021512775550e-10 1.000000000000e+00 2.046000000000e+03 0.000000000000e+00
    2.400000000000e+00 0.000000000000e+00-2.048909664154e-08 8.900000000000e+01
    2.952000000000e+05 4.000000000000e+00
